STARLINK-11139 [DTC]    
1 60402U 24141E   24245.41605133  .00008880  00000+0  58222-4 0  9990
2 60402  53.1576 298.9425 0001668 117.3727 242.7463 15.76719767  4670
STARLINK-11158 [DTC]    
1 60403U 24141F   24245.16667824  .00018576  00000+0  15789-3 0  9991
2 60403  53.1595 300.2155 0001284  83.4038 284.5166 15.69702643  4593
STARLINK-11199 [DTC]    
1 60404U 24141G   24245.50001157 -.00002247  00000+0 -13690-4 0  9991
2 60404  53.1594 298.5172 0001590  69.8788  50.5161 15.69706371  4690
STARLINK-11081 [DTC]    
1 60405U 24141H   24245.50001157 -.00005481  00000+0 -40402-4 0  9996
2 60405  53.1593 298.4602 0001469  73.7069  74.4201 15.69711567  4657
STARLINK-11150 [DTC]    
1 60406U 24141J   24245.50001157  .00041113  00000+0  34290-3 0  9994
2 60406  53.1591 298.4020 0001297  75.0742 100.8032 15.69683340  4699
STARLINK-11136 [DTC]    
1 60407U 24141K   24245.50001157  .00020404  00000+0  17298-3 0  9994
2 60407  53.1574 298.3435 0001262  52.4999 151.1137 15.69693169  4645
STARLINK-11196 [DTC]    
1 60408U 24141L   24245.50001157 -.00018926  00000+0 -15158-3 0  9996
2 60408  53.1583 298.2875 0001570  54.8867 176.4335 15.69728077  4697
STARLINK-11174 [DTC]    
1 60409U 24141M   24245.16667824 -.01108903  00000+0 -94234-2 0  9995
2 60409  53.1582 299.8205 0001034  80.8204 118.3772 15.71688231  4599
STARLINK-11191 [DTC]    
1 60410U 24141N   24245.16667824 -.01108624  00000+0 -94210-2 0  9991
2 60410  53.1568 299.7631 0000976  78.8115 148.1233 15.71688123  4648
STARLINK-32244          
1 60411U 24141P   24245.50001157 -.01701871  00000+0 -17145-1 0  9995
2 60411  53.1547 298.3043 0001086  73.2893 148.2063 15.67947168  4704
STARLINK-32186          
1 60412U 24141Q   24245.50001157 -.01701246  00000+0 -17138-1 0  9994
2 60412  53.1552 298.2997 0001112  76.0893 147.3230 15.67946676  4641
STARLINK-32178          
1 60413U 24141R   24245.50001157 -.01699560  00000+0 -17119-1 0  9999
2 60413  53.1581 298.2882 0001187  83.9662 145.1966 15.67945506  4643
STARLINK-32234          
1 60414U 24141S   24245.50001157 -.01698344  00000+0 -17105-1 0  9994
2 60414  53.1549 298.2953 0001308  89.4521 135.8780 15.67944247  4705
STARLINK-32265          
1 60415U 24141T   24245.50001157 -.01699979  00000+0 -17124-1 0  9991
2 60415  53.1547 298.2921 0001131  85.9368 141.3090 15.67945739  4694
STARLINK-32197          
1 60416U 24141U   24245.16667824  .00253016  00000+0  18278-2 0  9990
2 60416  53.1552 299.9131 0002491  41.3088 110.8323 15.72220060  4584
STARLINK-32255          
1 60417U 24141V   24245.50001157 -.01700372  00000+0 -17128-1 0  9997
2 60417  53.1584 298.2802 0001149  63.0161 169.9785 15.67946346  4706
STARLINK-32236          
1 60418U 24141W   24245.50001157 -.01697699  00000+0 -17097-1 0  9990
2 60418  53.1579 298.2757 0001419  87.9307 146.9819 15.67943975  4693
CAPELLA-13 (ACADIA-3)   
1 60419U 24142A   24244.15926101  .00039943  00000+0  45399-2 0  9993
2 60419  53.0085  36.2934 0010683 346.2092  13.8594 14.85859152  2914
ELECTRON KICK STAGE R/B 
1 60420U 24142B   24245.43799005  .00010453  00000+0  12193-2 0  9999
2 60420  53.0062  30.7307 0012610 333.6048  26.4287 14.85628419  3074
ASBM A                  
1 60422U 24143A   24226.47652309  .00001141  00000+0  33572-3 0  9999
2 60422  62.3271  72.7173 4781748 267.8387  38.9297  5.93604593   107
ASBM B                  
1 60423U 24143B   24226.13933057  .00001178  00000+0  34422-3 0  9990
2 60423  62.3236  72.9413 4780777 267.8157  38.9560  5.93764773    69
FALCON 9 R/B            
1 60424U 24143C   24245.46475290  .00006474  00000+0  97538-3 0  9999
2 60424  62.3438  59.7770 4776364 268.2478  38.6985  6.00027130  1215
STARLINK-32250          
1 60425U 24144A   24244.91667824 -.00534455  00000+0 -27815-2 0  9993
2 60425  53.1480 278.5188 0000768  78.9244  75.1934 15.81586507  4362
STARLINK-32226          
1 60426U 24144B   24244.91667824 -.00537221  00000+0 -27960-2 0  9999
2 60426  53.1484 278.5152 0000713  86.1084  70.0046 15.81592928  4161
STARLINK-32254          
1 60427U 24144C   24244.91667824 -.00548666  00000+0 -28695-2 0  9991
2 60427  53.1476 278.4897 0000693  87.9189  79.9798 15.81517360  4361
STARLINK-32193          
1 60428U 24144D   24244.91667824 -.00539651  00000+0 -28103-2 0  9990
2 60428  53.1480 278.5096 0000698  88.6393  69.9275 15.81586476  4362
STARLINK-32242          
1 60429U 24144E   24244.91667824 -.00548340  00000+0 -28641-2 0  9993
2 60429  53.1479 278.4967 0000726  85.1087  79.6212 15.81543967  4368
STARLINK-32196          
1 60430U 24144F   24244.91667824 -.00553856  00000+0 -29046-2 0  9993
2 60430  53.1478 278.4819 0000696  94.8123  77.0170 15.81471523  4272
STARLINK-32232          
1 60431U 24144G   24244.91667824 -.00542941  00000+0 -28314-2 0  9994
2 60431  53.1479 278.5031 0000729  84.7861  76.8753 15.81564493  4278
STARLINK-32246          
1 60432U 24144H   24244.91667824 -.00558918  00000+0 -29373-2 0  9992
2 60432  53.1479 278.4752 0000666  92.8591  82.3693 15.81439371  4279
STARLINK-32183          
1 60433U 24144J   24244.91667824 -.00560122  00000+0 -29434-2 0  9991
2 60433  53.1476 278.4707 0000709  91.9377  85.2962 15.81443811  4272
STARLINK-32233          
1 60434U 24144K   24244.91667824 -.00569208  00000+0 -30018-2 0  9996
2 60434  53.1477 278.4577 0000729  85.2946  98.2518 15.81390171  4270
STARLINK-32222          
1 60435U 24144L   24244.91667824 -.00564818  00000+0 -29744-2 0  9993
2 60435  53.1479 278.4640 0000707  94.4781  86.1687 15.81409912  4276
STARLINK-32229          
1 60436U 24144M   24244.91667824 -.00572750  00000+0 -30255-2 0  9997
2 60436  53.1473 278.4508 0000702  93.5939  93.0423 15.81363542  4277
STARLINK-32241          
1 60437U 24144N   24244.91667824 -.00578718  00000+0 -30658-2 0  9995
2 60437  53.1475 278.4435 0000708  84.2279 106.1827 15.81316942  4275
STARLINK-32240          
1 60438U 24144P   24244.91667824 -.00581437  00000+0 -30847-2 0  9998
2 60438  53.1474 278.4374 0000693  96.8880  96.4745 15.81292525  4367
STARLINK-32231          
1 60439U 24144Q   24244.91667824 -.00591551  00000+0 -31506-2 0  9990
2 60439  53.1475 278.4244 0000702  80.3259 119.2842 15.81234188  4367
STARLINK-32195          
1 60440U 24144R   24244.91667824 -.00587291  00000+0 -31227-2 0  9998
2 60440  53.1476 278.4308 0000695  92.9914 103.6476 15.81259354  4271
STARLINK-32177          
1 60441U 24144S   24244.91667824 -.00594451  00000+0 -31696-2 0  9995
2 60441  53.1476 278.4192 0000798  69.1170 133.1815 15.81216755  4270
STARLINK-32252          
1 60442U 24144T   24244.91667824 -.00607340  00000+0 -32580-2 0  9991
2 60442  53.1471 278.3988 0000681  91.4541 120.2450 15.81119576  4364
STARLINK-32237          
1 60443U 24144U   24244.91667824 -.00598922  00000+0 -32014-2 0  9999
2 60443  53.1474 278.4114 0000660  93.1307 112.6023 15.81175280  4170
STARLINK-32249          
1 60444U 24144V   24244.91667824 -.00614904  00000+0 -33092-2 0  9996
2 60444  53.1469 278.3862 0000649  90.7228 126.7005 15.81069588  4366
STARLINK-32228          
1 60445U 24144W   24244.91667824 -.00612407  00000+0 -32926-2 0  9998
2 60445  53.1472 278.3919 0000678  86.0188 128.8799 15.81083775  4366
STARLINK-32247          
1 60446U 24144X   24244.91667824 -.00615833  00000+0 -33194-2 0  9993
2 60446  53.1471 278.3800 0000704 107.3608 113.0372 15.81037872  4369
STARLINK-32101          
1 60447U 24144Y   24244.91667824 -.00604525  00000+0 -32393-2 0  9990
2 60447  53.1472 278.4042 0000668  86.6348 122.4363 15.81136455  4270
PROGRESS-MS 28          
1 60450U 24145A   24244.53584811  .00048192  00000+0  86941-3 0  9996
2 60450  51.6414 302.0483 0011347 301.1839 201.6197 15.49201194470237
LEGION 3                
1 60452U 24146A   24245.54244586  .00041555  00000+0  10733-2 0  9994
2 60452  44.9935 313.6981 0006292  34.1325 325.9965 15.38500918  2619
LEGION 4                
1 60453U 24146B   24244.91526669  .00001343  00000+0  32633-3 0  9995
2 60453  45.0404 325.0731 0005202 235.8027 124.2336 14.57489374  2380
EOS-08                  
1 60454U 24147A   24245.29335964  .00046386  00000+0  14397-2 0  9997
2 60454  37.3797 199.4966 0007790 123.3080 236.8427 15.32414443  2477
2024-147B               
1 60455U 24147B   24245.32764509  .00224811  00000+0  57616-2 0  9995
2 60455  37.3788 198.8381 0014609 142.0873 218.0920 15.37530458  2477
2024-147C               
1 60456U 24147C   24245.28154422  .00076195  00000+0  80892-3 0  9991
2 60456  36.9264 193.7460 0078435  31.3311 329.2090 15.59071505  2513
2024-147D               
1 60457U 24147D   24245.30685752  .00035320  00000+0  91834-3 0  9993
2 60457  37.3667 198.6481 0028849 126.9004 233.4406 15.37616954  2489
YAOGAN-43 01A           
1 60458U 24148A   24245.55016231  .00034954  00000+0  14089-2 0  9990
2 60458  35.0000 313.2510 0004980  49.0050 311.1095 15.23855654  2485
YAOGAN-43 01B           
1 60459U 24148B   24245.54818588  .00030425  00000+0  12225-2 0  9994
2 60459  34.9967 313.2338 0004753  59.0195 301.0987 15.23987285  2421
YAOGAN-43 01C           
1 60460U 24148C   24245.55004959  .00033689  00000+0  14020-2 0  9996
2 60460  35.0040 313.2515 0005627  61.1752 298.9527 15.22785439  2428
YAOGAN-43 01D           
1 60461U 24148D   24245.47845399  .00037072  00000+0  14681-2 0  9992
2 60461  34.9969 313.6105 0007050  67.1909 292.9550 15.24423698  2415
YAOGAN-43 01E           
1 60462U 24148E   24245.47929762  .00043360  00000+0  17136-2 0  9995
2 60462  34.9957 313.6179 0005829  61.9229 298.2075 15.24464988  2411
YAOGAN-43 01F           
1 60463U 24148F   24245.54733486  .00030316  00000+0  12158-2 0  9996
2 60463  34.9993 313.2275 0004766  66.4458 293.6757 15.24051802  2422
